QIANFAN-225             
1 69854U 26155G   26204.81364188  .00000192  00000+0  84071-4 0  9999
2 69854  89.0060  59.9724 0029801 193.5324 166.5070 14.19333232  2604
QIANFAN-226             
1 69855U 26155H   26204.81132150  .00000203  00000+0  89147-4 0  9994
2 69855  89.0060  59.9721 0030564 193.9000 166.1352 14.19637533  2605
QIANFAN-227             
1 69856U 26155J   26204.80506354  .00000194  00000+0  84414-4 0  9996
2 69856  89.0060  59.9713 0030496 193.4560 166.5820 14.19929296  2601
QIANFAN-228             
1 69857U 26155K   26204.80273948  .00000171  00000+0  72978-4 0  9994
2 69857  89.0061  59.9711 0030303 193.8983 166.1376 14.20223083  2606
QIANFAN-229             
1 69858U 26155L   26204.79298697  .00000089  00000+0  33843-4 0  9997
2 69858  89.0059  59.9693 0030121 193.2425 166.7979 14.21820759  2605
QIANFAN-230             
1 69859U 26155M   26204.83246130  .00000179  00000+0  80268-4 0  9991
2 69859  89.0055  59.9745 0029538 194.1243 165.9123 14.17864875  2602
QIANFAN-231             
1 69860U 26155N   26204.79108319  .00000213  00000+0  86637-4 0  9999
2 69860  89.0062  59.9695 0031404 192.8311 167.2086 14.23685644  2607
QIANFAN-232             
1 69861U 26155P   26204.78822074  .00000204  00000+0  82144-4 0  9999
2 69861  89.0059  59.9685 0030596 194.2027 165.8308 14.23943243  2607
QIANFAN-233             
1 69862U 26155Q   26204.78641760  .00000181  00000+0  72469-4 0  9994
2 69862  89.0061  59.9686 0030550 193.8133 166.2227 14.23734091  2609
QIANFAN-234             
1 69863U 26155R   26204.78335054  .00000081  00000+0  28594-4 0  9990
2 69863  89.0061  59.9683 0030530 192.5844 167.4590 14.24414567  2600
QIANFAN-235             
1 69864U 26155S   26204.77905036  .00000216  00000+0  82930-4 0  9997
2 69864  89.0061  59.9675 0031195 194.3918 165.6390 14.26767160  2602
QIANFAN-236             
1 69865U 26155T   26204.79093167  .00000072  00000+0  26237-4 0  9991
2 69865  89.0061  59.9693 0029681 193.6709 166.3682 14.21104005  2600
QIANFAN-237             
1 69866U 26155U   26204.78345815  .00000081  00000+0  28596-4 0  9991
2 69866  89.0060  59.9682 0030832 193.8581 166.1769 14.24432734  2596
QIANFAN-238             
1 69867U 26155V   26204.77889455  .00000228  00000+0  87828-4 0  9990
2 69867  89.0061  59.9675 0031224 194.1298 165.9025 14.26740101  2601
