{"fetched_at":"2026-07-24T07:06:11.280Z","source":"https://celestrak.org/NORAD/elements/gp.php?GROUP=qianfan&FORMAT=JSON","constellation":"qianfan","records":[{"OBJECT_NAME":"QIANFAN-225","OBJECT_ID":"2026-155G","EPOCH":"2026-07-23T19:31:38.658432","CLASSIFICATION_TYPE":"U","MEAN_MOTION":14.19333232,"ECCENTRICITY":0.0029801,"INCLINATION":89.006,"RA_OF_ASC_NODE":59.9724,"ARG_OF_PERICENTER":193.5324,"MEAN_ANOMALY":166.507,"EPHEMERIS_TYPE":0,"NORAD_CAT_ID":69854,"ELEMENT_SET_NO":999,"REV_AT_EPOCH":260,"BSTAR":0.000084071,"MEAN_MOTION_DOT":0.00000192,"MEAN_MOTION_DDOT":0},{"OBJECT_NAME":"QIANFAN-226","OBJECT_ID":"2026-155H","EPOCH":"2026-07-23T19:28:18.177600","CLASSIFICATION_TYPE":"U","MEAN_MOTION":14.19637533,"ECCENTRICITY":0.0030564,"INCLINATION":89.006,"RA_OF_ASC_NODE":59.9721,"ARG_OF_PERICENTER":193.9,"MEAN_ANOMALY":166.1352,"EPHEMERIS_TYPE":0,"NORAD_CAT_ID":69855,"ELEMENT_SET_NO":999,"REV_AT_EPOCH":260,"BSTAR":0.000089147,"MEAN_MOTION_DOT":0.00000203,"MEAN_MOTION_DDOT":0},{"OBJECT_NAME":"QIANFAN-227","OBJECT_ID":"2026-155J","EPOCH":"2026-07-23T19:19:17.489856","CLASSIFICATION_TYPE":"U","MEAN_MOTION":14.19929296,"ECCENTRICITY":0.0030496,"INCLINATION":89.006,"RA_OF_ASC_NODE":59.9713,"ARG_OF_PERICENTER":193.456,"MEAN_ANOMALY":166.582,"EPHEMERIS_TYPE":0,"NORAD_CAT_ID":69856,"ELEMENT_SET_NO":999,"REV_AT_EPOCH":260,"BSTAR":0.000084414,"MEAN_MOTION_DOT":0.00000194,"MEAN_MOTION_DDOT":0},{"OBJECT_NAME":"QIANFAN-228","OBJECT_ID":"2026-155K","EPOCH":"2026-07-23T19:15:56.691072","CLASSIFICATION_TYPE":"U","MEAN_MOTION":14.20223083,"ECCENTRICITY":0.0030303,"INCLINATION":89.0061,"RA_OF_ASC_NODE":59.9711,"ARG_OF_PERICENTER":193.8983,"MEAN_ANOMALY":166.1376,"EPHEMERIS_TYPE":0,"NORAD_CAT_ID":69857,"ELEMENT_SET_NO":999,"REV_AT_EPOCH":260,"BSTAR":0.000072978,"MEAN_MOTION_DOT":0.00000171,"MEAN_MOTION_DDOT":0},{"OBJECT_NAME":"QIANFAN-229","OBJECT_ID":"2026-155L","EPOCH":"2026-07-23T19:01:54.074208","CLASSIFICATION_TYPE":"U","MEAN_MOTION":14.21820759,"ECCENTRICITY":0.0030121,"INCLINATION":89.0059,"RA_OF_ASC_NODE":59.9693,"ARG_OF_PERICENTER":193.2425,"MEAN_ANOMALY":166.7979,"EPHEMERIS_TYPE":0,"NORAD_CAT_ID":69858,"ELEMENT_SET_NO":999,"REV_AT_EPOCH":260,"BSTAR":0.000033843,"MEAN_MOTION_DOT":8.9e-7,"MEAN_MOTION_DDOT":0},{"OBJECT_NAME":"QIANFAN-230","OBJECT_ID":"2026-155M","EPOCH":"2026-07-23T19:58:44.656320","CLASSIFICATION_TYPE":"U","MEAN_MOTION":14.17864875,"ECCENTRICITY":0.0029538,"INCLINATION":89.0055,"RA_OF_ASC_NODE":59.9745,"ARG_OF_PERICENTER":194.1243,"MEAN_ANOMALY":165.9123,"EPHEMERIS_TYPE":0,"NORAD_CAT_ID":69859,"ELEMENT_SET_NO":999,"REV_AT_EPOCH":260,"BSTAR":0.000080268,"MEAN_MOTION_DOT":0.00000179,"MEAN_MOTION_DDOT":0},{"OBJECT_NAME":"QIANFAN-231","OBJECT_ID":"2026-155N","EPOCH":"2026-07-23T18:59:09.587616","CLASSIFICATION_TYPE":"U","MEAN_MOTION":14.23685644,"ECCENTRICITY":0.0031404,"INCLINATION":89.0062,"RA_OF_ASC_NODE":59.9695,"ARG_OF_PERICENTER":192.8311,"MEAN_ANOMALY":167.2086,"EPHEMERIS_TYPE":0,"NORAD_CAT_ID":69860,"ELEMENT_SET_NO":999,"REV_AT_EPOCH":260,"BSTAR":0.000086637,"MEAN_MOTION_DOT":0.00000213,"MEAN_MOTION_DDOT":0},{"OBJECT_NAME":"QIANFAN-232","OBJECT_ID":"2026-155P","EPOCH":"2026-07-23T18:55:02.271936","CLASSIFICATION_TYPE":"U","MEAN_MOTION":14.23943243,"ECCENTRICITY":0.0030596,"INCLINATION":89.0059,"RA_OF_ASC_NODE":59.9685,"ARG_OF_PERICENTER":194.2027,"MEAN_ANOMALY":165.8308,"EPHEMERIS_TYPE":0,"NORAD_CAT_ID":69861,"ELEMENT_SET_NO":999,"REV_AT_EPOCH":260,"BSTAR":0.000082144,"MEAN_MOTION_DOT":0.00000204,"MEAN_MOTION_DDOT":0},{"OBJECT_NAME":"QIANFAN-233","OBJECT_ID":"2026-155Q","EPOCH":"2026-07-23T18:52:26.480640","CLASSIFICATION_TYPE":"U","MEAN_MOTION":14.23734091,"ECCENTRICITY":0.003055,"INCLINATION":89.0061,"RA_OF_ASC_NODE":59.9686,"ARG_OF_PERICENTER":193.8133,"MEAN_ANOMALY":166.2227,"EPHEMERIS_TYPE":0,"NORAD_CAT_ID":69862,"ELEMENT_SET_NO":999,"REV_AT_EPOCH":260,"BSTAR":0.000072469,"MEAN_MOTION_DOT":0.00000181,"MEAN_MOTION_DDOT":0},{"OBJECT_NAME":"QIANFAN-234","OBJECT_ID":"2026-155R","EPOCH":"2026-07-23T18:48:01.486656","CLASSIFICATION_TYPE":"U","MEAN_MOTION":14.24414567,"ECCENTRICITY":0.003053,"INCLINATION":89.0061,"RA_OF_ASC_NODE":59.9683,"ARG_OF_PERICENTER":192.5844,"MEAN_ANOMALY":167.459,"EPHEMERIS_TYPE":0,"NORAD_CAT_ID":69863,"ELEMENT_SET_NO":999,"REV_AT_EPOCH":260,"BSTAR":0.000028594,"MEAN_MOTION_DOT":8.1e-7,"MEAN_MOTION_DDOT":0},{"OBJECT_NAME":"QIANFAN-235","OBJECT_ID":"2026-155S","EPOCH":"2026-07-23T18:41:49.951104","CLASSIFICATION_TYPE":"U","MEAN_MOTION":14.2676716,"ECCENTRICITY":0.0031195,"INCLINATION":89.0061,"RA_OF_ASC_NODE":59.9675,"ARG_OF_PERICENTER":194.3918,"MEAN_ANOMALY":165.639,"EPHEMERIS_TYPE":0,"NORAD_CAT_ID":69864,"ELEMENT_SET_NO":999,"REV_AT_EPOCH":260,"BSTAR":0.00008293,"MEAN_MOTION_DOT":0.00000216,"MEAN_MOTION_DDOT":0},{"OBJECT_NAME":"QIANFAN-236","OBJECT_ID":"2026-155T","EPOCH":"2026-07-23T18:58:56.496288","CLASSIFICATION_TYPE":"U","MEAN_MOTION":14.21104005,"ECCENTRICITY":0.0029681,"INCLINATION":89.0061,"RA_OF_ASC_NODE":59.9693,"ARG_OF_PERICENTER":193.6709,"MEAN_ANOMALY":166.3682,"EPHEMERIS_TYPE":0,"NORAD_CAT_ID":69865,"ELEMENT_SET_NO":999,"REV_AT_EPOCH":260,"BSTAR":0.000026237,"MEAN_MOTION_DOT":7.2e-7,"MEAN_MOTION_DDOT":0},{"OBJECT_NAME":"QIANFAN-237","OBJECT_ID":"2026-155U","EPOCH":"2026-07-23T18:48:10.784160","CLASSIFICATION_TYPE":"U","MEAN_MOTION":14.24432734,"ECCENTRICITY":0.0030832,"INCLINATION":89.006,"RA_OF_ASC_NODE":59.9682,"ARG_OF_PERICENTER":193.8581,"MEAN_ANOMALY":166.1769,"EPHEMERIS_TYPE":0,"NORAD_CAT_ID":69866,"ELEMENT_SET_NO":999,"REV_AT_EPOCH":259,"BSTAR":0.000028596,"MEAN_MOTION_DOT":8.1e-7,"MEAN_MOTION_DDOT":0},{"OBJECT_NAME":"QIANFAN-238","OBJECT_ID":"2026-155V","EPOCH":"2026-07-23T18:41:36.489120","CLASSIFICATION_TYPE":"U","MEAN_MOTION":14.26740101,"ECCENTRICITY":0.0031224,"INCLINATION":89.0061,"RA_OF_ASC_NODE":59.9675,"ARG_OF_PERICENTER":194.1298,"MEAN_ANOMALY":165.9025,"EPHEMERIS_TYPE":0,"NORAD_CAT_ID":69867,"ELEMENT_SET_NO":999,"REV_AT_EPOCH":260,"BSTAR":0.000087828,"MEAN_MOTION_DOT":0.00000228,"MEAN_MOTION_DDOT":0}]}
